NORAD_CAT_ID,OBJECT_NAME,OBJECT_TYPE,EPOCH,MEAN_MOTION,ECCENTRICITY,INCLINATION,RA_OF_ASC_NODE,ARG_OF_PERICENTER,MEAN_ANOMALY,BSTAR,MEAN_MOTION_DOT,MEAN_MOTION_DDOT,TLE_LINE0,TLE_LINE1,TLE_LINE2,SEMIMAJOR_AXIS,PERIOD,APOGEE,PERIGEE,DECAYED
55753.0,STARLINK-5617,PAYLOAD,2024-04-16 14:33:35,14.98341947,0.0002927,70.0008,189.4115,263.9765,96.1061,0.00016471,1.873e-05,0.0,0 STARLINK-5617,1 55753U 23028N   24107.60666428  .00001873  00000-0  16471-3 0  9993,2 55753  70.0008 189.4115 0002927 263.9765  96.1061 14.98341947 62370,6950.156,96.106,574.055,569.987,0.0
55753.0,STARLINK-5617,PAYLOAD,2024-04-17 12:59:28,14.98337633,0.0003252,69.9999,187.0542,262.0295,98.0495,0.0001323,1.486e-05,0.0,0 STARLINK-5617,1 55753U 23028N   24108.54130308  .00001486  00000-0  13230-3 0  9990,2 55753  69.9999 187.0542 0003252 262.0295  98.0495 14.98337633 62519,6950.169,96.107,574.294,569.774,0.0
55753.0,STARLINK-5617,PAYLOAD,2024-04-17 14:35:36,14.98343301,0.000321,70.001,186.8884,260.1687,99.911,0.00018557,2.123e-05,0.0,0 STARLINK-5617,1 55753U 23028N   24108.60805800  .00002123  00000-0  18557-3 0  9999,2 55753  70.0010 186.8884 0003210 260.1687  99.9110 14.98343301 62524,6950.152,96.106,574.248,569.786,0.0
55753.0,STARLINK-5617,PAYLOAD,2024-04-18 13:01:30,14.98331548,0.0003344,70.0005,184.532,268.756,91.3216,-4.8038e-05,-6.66e-06,0.0,0 STARLINK-5617,1 55753U 23028N   24109.54271034 -.00000666  00000-0 -48038-4 0  9999,2 55753  70.0005 184.5320 0003344 268.7560  91.3216 14.98331548 62668,6950.188,96.107,574.377,569.729,0.0
55753.0,STARLINK-5617,PAYLOAD,2024-04-19 05:02:48,14.9834809,0.0003694,69.9995,182.8466,274.1013,85.9723,0.00015465,1.754e-05,0.0,0 STARLINK-5617,1 55753U 23028N   24110.21028924  .00001754  00000-0  15465-3 0  9997,2 55753  69.9995 182.8466 0003694 274.1013  85.9723 14.98348090 62760,6950.137,96.106,574.569,569.435,0.0
55753.0,STARLINK-5617,PAYLOAD,2024-04-19 13:03:31,14.98321434,0.0003206,70.0004,182.0082,254.2222,105.8584,-0.00020916,-2.587e-05,0.0,0 STARLINK-5617,1 55753U 23028N   24110.54411303 -.00002587  00000-0 -20916-3 0  9994,2 55753  70.0004 182.0082 0003206 254.2222 105.8584 14.98321434 62816,6950.219,96.108,574.313,569.856,0.0
55753.0,STARLINK-5617,PAYLOAD,2024-04-19 14:39:39,14.98321487,0.0003216,70.0003,181.8401,255.5445,104.5358,-0.00020542,-2.543e-05,0.0,0 STARLINK-5617,1 55753U 23028N   24110.61087313 -.00002543  00000-0 -20542-3 0  9999,2 55753  70.0003 181.8401 0003216 255.5445 104.5358 14.98321487 62823,6950.219,96.108,574.319,569.849,0.0
55753.0,STARLINK-5617,PAYLOAD,2024-04-20 13:05:31,14.98334579,0.0002681,70.0014,179.4825,259.9796,100.106,0.00022341,2.574e-05,0.0,0 STARLINK-5617,1 55753U 23028N   24111.54550294  .00002574  00000-0  22341-3 0  9996,2 55753  70.0014 179.4825 0002681 259.9796 100.1060 14.98334579 62963,6950.179,96.107,573.907,570.18,0.0
55753.0,STARLINK-5617,PAYLOAD,2024-04-20 14:41:39,14.98339913,0.0002813,70.0024,179.3157,256.6393,103.4452,0.00030148,3.507e-05,0.0,0 STARLINK-5617,1 55753U 23028N   24111.61226076  .00003507  00000-0  30148-3 0  9993,2 55753  70.0024 179.3157 0002813 256.6393 103.4452 14.98339913 62974,6950.162,96.106,573.982,570.072,0.0
55753.0,STARLINK-5617,PAYLOAD,2024-04-21 05:06:53,14.98316855,0.0002755,70.0031,177.7983,265.5532,94.5312,-0.00025617,-3.147e-05,0.0,0 STARLINK-5617,1 55753U 23028N   24112.21311438 -.00003147  00000-0 -25617-3 0  9994,2 55753  70.0031 177.7983 0002755 265.5532  94.5312 14.98316855 63066,6950.234,96.108,574.013,570.184,0.0
55753.0,STARLINK-5617,PAYLOAD,2024-04-21 13:07:33,14.98317376,0.0002666,70.0026,176.9605,249.5158,110.5716,-0.00021232,-2.624e-05,0.0,0 STARLINK-5617,1 55753U 23028N   24112.54691748 -.00002624  00000-0 -21232-3 0  9993,2 55753  70.0026 176.9605 0002666 249.5158 110.5716 14.98317376 63111,6950.232,96.108,573.95,570.244,0.0
55753.0,STARLINK-5617,PAYLOAD,2024-04-21 14:43:41,14.983169,0.0002609,70.0022,176.7893,262.0069,98.0794,-0.00016364,-2.044e-05,0.0,0 STARLINK-5617,1 55753U 23028N   24112.61367909 -.00002044  00000-0 -16364-3 0  9996,2 55753  70.0022 176.7893 0002609 262.0069  98.0794 14.98316900 63121,6950.233,96.108,573.912,570.285,0.0
55753.0,STARLINK-5617,PAYLOAD,2024-04-22 05:08:53,14.98336674,0.000336,70.0006,175.2737,276.089,83.9886,0.00023278,2.686e-05,0.0,0 STARLINK-5617,1 55753U 23028N   24113.21451319  .00002686  00000-0  23278-3 0  9994,2 55753  70.0006 175.2737 0003360 276.0890  83.9886 14.98336674 63211,6950.172,96.107,574.373,569.702,0.0
55753.0,STARLINK-5617,PAYLOAD,2024-04-22 09:57:18,14.98339311,0.0002614,70.0029,174.7702,273.9535,86.1325,0.001045,0.00012401,0.0,0 STARLINK-5617,1 55753U 23028N   24113.41479633  .00012401  00000-0  10450-2 0  9998,2 55753  70.0029 174.7702 0002614 273.9535  86.1325 14.98339311 63242,6950.164,96.106,573.846,570.212,0.0
55753.0,STARLINK-5617,PAYLOAD,2024-04-22 13:09:34,14.98360869,0.0003199,70.0016,174.4319,279.8131,80.2666,0.0016928,0.0002018,0.0,0 STARLINK-5617,1 55753U 23028N   24113.54831197  .00020180  00000-0  16928-2 0  9998,2 55753  70.0016 174.4319 0003199 279.8131  80.2666 14.98360869 63262,6950.097,96.105,574.186,569.739,0.0
55753.0,STARLINK-5617,PAYLOAD,2024-04-23 05:10:54,14.98351382,0.0002508,70.0051,172.7524,258.6167,101.4711,-0.0003134,-3.832e-05,0.0,0 STARLINK-5617,1 55753U 23028N   24114.21590785 -.00003832  00000-0 -31340-3 0  9991,2 55753  70.0051 172.7524 0002508 258.6167 101.4711 14.98351382 63365,6950.127,96.106,573.735,570.249,0.0
55753.0,STARLINK-5617,PAYLOAD,2024-04-23 11:35:26,14.98337174,0.0002815,70.0026,172.0787,255.3686,104.7161,-0.00023469,-2.893e-05,0.0,0 STARLINK-5617,1 55753U 23028N   24114.48295008 -.00002893  00000-0 -23469-3 0  9999,2 55753  70.0026 172.0787 0002815 255.3686 104.7161 14.98337174 63405,6950.171,96.107,573.992,570.079,0.0
55753.0,STARLINK-5617,PAYLOAD,2024-04-23 13:11:35,14.98335305,0.0003166,70.0013,171.9076,270.5397,89.54,7.5629e-05,8.1e-06,0.0,0 STARLINK-5617,1 55753U 23028N   24114.54971170  .00000810  00000-0  75629-4 0  9998,2 55753  70.0013 171.9076 0003166 270.5397  89.5400 14.98335305 63419,6950.176,96.107,574.242,569.841,0.0
55753.0,STARLINK-5617,PAYLOAD,2024-04-24 11:37:28,14.98330921,0.0002641,70.0026,169.5538,254.3716,105.7152,-5.7646e-06,-1.62e-06,0.0,0 STARLINK-5617,1 55753U 23028N   24115.48435387 -.00000162  00000-0 -57646-5 0  9999,2 55753  70.0026 169.5538 0002641 254.3716 105.7152 14.98330921 63550,6950.19,96.107,573.891,570.219,0.0
55753.0,STARLINK-5617,PAYLOAD,2024-04-24 13:13:36,14.98331123,0.0002651,70.0025,169.3855,254.8901,105.1965,1.6875e-05,1.08e-06,0.0,0 STARLINK-5617,1 55753U 23028N   24115.55111395  .00000108  00000-0  16875-4 0  9993,2 55753  70.0025 169.3855 0002651 254.8901 105.1965 14.98331123 63563,6950.189,96.107,573.897,570.212,0.0
55753.0,STARLINK-5617,PAYLOAD,2024-04-25 11:39:28,14.98342423,0.0002607,70.0021,167.0282,253.5216,106.5657,0.00048466,5.696e-05,0.0,0 STARLINK-5617,1 55753U 23028N   24116.48575048  .00005696  00000-0  48466-3 0  9992,2 55753  70.0021 167.0282 0002607 253.5216 106.5657 14.98342423 63708,6950.154,96.106,573.831,570.208,0.0
55753.0,STARLINK-5617,PAYLOAD,2024-04-25 13:15:36,14.98342932,0.0002618,70.002,166.8595,255.5081,104.5787,0.00048134,5.657e-05,0.0,0 STARLINK-5617,1 55753U 23028N   24116.55251014  .00005657  00000-0  48134-3 0  9993,2 55753  70.0020 166.8595 0002618 255.5081 104.5787 14.98342932 63713,6950.153,96.106,573.837,570.198,0.0
55753.0,STARLINK-5617,PAYLOAD,2024-04-26 03:40:49,14.98339877,0.0002287,70.0027,165.3445,259.1506,100.9396,0.00042535,4.987e-05,0.0,0 STARLINK-5617,1 55753U 23028N   24117.15335091  .00004987  00000-0  42535-3 0  9992,2 55753  70.0027 165.3445 0002287 259.1506 100.9396 14.98339877 63802,6950.162,96.106,573.617,570.438,0.0
55753.0,STARLINK-5617,PAYLOAD,2024-04-26 13:17:37,14.98339746,0.0002905,70.001,164.3335,264.9022,95.1806,0.00019638,2.252e-05,0.0,0 STARLINK-5617,1 55753U 23028N   24117.55390735  .00002252  00000-0  19638-3 0  9993,2 55753  70.0010 164.3335 0002905 264.9022  95.1806 14.98339746 63867,6950.163,96.106,574.047,570.009,0.0
55753.0,STARLINK-5617,PAYLOAD,2024-04-27 03:42:49,14.98354798,0.0002922,70.0007,162.8179,265.8944,94.1881,0.00038363,4.49e-05,0.0,0 STARLINK-5617,1 55753U 23028N   24118.15473534  .00004490  00000-0  38363-3 0  9991,2 55753  70.0007 162.8179 0002922 265.8944  94.1881 14.98354798 63950,6950.116,96.105,574.012,569.95,0.0
55753.0,STARLINK-5617,PAYLOAD,2024-04-27 13:19:36,14.98362195,0.0002593,70.0012,161.8084,264.4233,95.663,0.00049662,5.842e-05,0.0,0 STARLINK-5617,1 55753U 23028N   24118.55528571  .00005842  00000-0  49662-3 0  9993,2 55753  70.0012 161.8084 0002593 264.4233  95.6630 14.98362195 64016,6950.093,96.105,573.76,570.156,0.0
55753.0,STARLINK-5617,PAYLOAD,2024-04-27 19:44:09,14.98339633,0.0002181,70.0026,161.1356,260.1359,99.9554,-4.0335e-05,-5.74e-06,0.0,0 STARLINK-5617,1 55753U 23028N   24118.82233519 -.00000574  00000-0 -40335-4 0  9996,2 55753  70.0026 161.1356 0002181 260.1359  99.9554 14.98339633 64058,6950.163,96.106,573.544,570.512,0.0
55753.0,STARLINK-5617,PAYLOAD,2024-04-28 03:44:50,14.98313837,0.000289,70.0006,160.2931,264.3455,95.7375,-0.00061051,-7.367e-05,0.0,0 STARLINK-5617,1 55753U 23028N   24119.15614292 -.00007367  00000-0 -61051-3 0  9998,2 55753  70.0006 160.2931 0002890 264.3455  95.7375 14.98313837 64104,6950.243,96.108,574.116,570.099,0.0
55753.0,STARLINK-5617,PAYLOAD,2024-04-28 13:21:39,14.98308643,0.0003018,70.0003,159.2831,264.3997,95.6818,-0.00062738,-7.567e-05,0.0,0 STARLINK-5617,1 55753U 23028N   24119.55670824 -.00007567  00000-0 -62738-3 0  9990,2 55753  70.0003 159.2831 0003018 264.3997  95.6818 14.98308643 64168,6950.259,96.108,574.222,570.026,0.0
55753.0,STARLINK-5617,PAYLOAD,2024-04-28 19:46:12,14.98308818,0.0003093,70.0,158.6096,265.3417,94.7389,-0.00052104,-6.301e-05,0.0,0 STARLINK-5617,1 55753U 23028N   24119.82375141 -.00006301  00000-0 -52104-3 0  9995,2 55753  70.0000 158.6096 0003093 265.3417  94.7389 14.98308818 64204,6950.258,96.108,574.273,569.974,0.0
